{"type": "FeatureCollection", "features": [ {"type": "Feature", "properties": {"norad_id": 67009, "name": "STARLINK-36118", "group": "last-30-days", "lat": 53.96425432300442, "lon": 90.87358417190676, "alt_km": 294.7748632124849, "timestamp": "2025-12-20T14:38:00.691807+00:00", "meta": {"OBJECT_NAME": "STARLINK-36118", "OBJECT_ID": "2025-293G", "EPOCH": "2025-12-20T06:00:02.999808", "MEAN_MOTION": 15.92235418, "ECCENTRICITY": 0.00039023, "INCLINATION": 69.9942, "RA_OF_ASC_NODE": 301.973, "ARG_OF_PERICENTER": 271.7736, "MEAN_ANOMALY": 308.1503, "EPHEMERIS_TYPE": 0, "CLASSIFICATION_TYPE": "U", "NORAD_CAT_ID": 67009, "ELEMENT_SET_NO": 999, "REV_AT_EPOCH": 132, "BSTAR": -0.0032623326, "MEAN_MOTION_DOT": -0.0109542, "MEAN_MOTION_DDOT": 0.00035847871}, "tle": {"line1": "1 67009U 25293G   25354.25003472 -.01095420  35848-3 -32623-2 0  9997", "line2": "2 67009  69.9942 301.9730 0003902 271.7736 308.1503 15.92235418  1329"}}, "geometry": {"type": "Point", "coordinates": [90.87358417190676, 53.96425432300442]}}, {"type": "Feature", "properties": {"norad_id": 67010, "name": "STARLINK-36189", "group": "last-30-days", "lat": 50.07388701687219, "lon": 95.11507024221412, "alt_km": 294.9120183152163, "timestamp": "2025-12-20T14:38:00.691816+00:00", "meta": {"OBJECT_NAME": "STARLINK-36189", "OBJECT_ID": "2025-293H", "EPOCH": "2025-12-20T06:00:02.999808", "MEAN_MOTION": 15.92343617, "ECCENTRICITY": 0.00038938, "INCLINATION": 69.9943, "RA_OF_ASC_NODE": 301.9675, "ARG_OF_PERICENTER": 270.811, "MEAN_ANOMALY": 313.6653, "EPHEMERIS_TYPE": 0, "CLASSIFICATION_TYPE": "U", "NORAD_CAT_ID": 67010, "ELEMENT_SET_NO": 999, "REV_AT_EPOCH": 138, "BSTAR": -0.0033207034, "MEAN_MOTION_DOT": -0.01121055, "MEAN_MOTION_DDOT": 0.00037452898}, "tle": {"line1": "1 67010U 25293H   25354.25003472 -.01121055  37453-3 -33207-2 0  9996", "line2": "2 67010  69.9943 301.9675 0003893 270.8110 313.6653 15.92343617  1389"}}, "geometry": {"type": "Point", "coordinates": [95.11507024221412, 50.07388701687219]}}, {"type": "Feature", "properties": {"norad_id": 67011, "name": "STARLINK-36167", "group": "last-30-days", "lat": 52.31421068550838, "lon": 92.7831764212969, "alt_km": 294.7782706642438, "timestamp": "2025-12-20T14:38:00.691826+00:00", "meta": {"OBJECT_NAME": "STARLINK-36167", "OBJECT_ID": "2025-293J", "EPOCH": "2025-12-20T06:00:02.999808", "MEAN_MOTION": 15.92281564, "ECCENTRICITY": 0.00038474, "INCLINATION": 69.9939, "RA_OF_ASC_NODE": 301.9702, "ARG_OF_PERICENTER": 270.6668, "MEAN_ANOMALY": 311.209, "EPHEMERIS_TYPE": 0, "CLASSIFICATION_TYPE": "U", "NORAD_CAT_ID": 67011, "ELEMENT_SET_NO": 999, "REV_AT_EPOCH": 132, "BSTAR": -0.0032796137, "MEAN_MOTION_DOT": -0.01103762, "MEAN_MOTION_DDOT": 0.00036370458}, "tle": {"line1": "1 67011U 25293J   25354.25003472 -.01103762  36370-3 -32796-2 0  9991", "line2": "2 67011  69.9939 301.9702 0003847 270.6668 311.2090 15.92281564  1326"}}, "geometry": {"type": "Point", "coordinates": [92.7831764212969, 52.31421068550838]}}, {"type": "Feature", "properties": {"norad_id": 67012, "name": "STARLINK-36175", "group": "last-30-days", "lat": 48.22964891045148, "lon": 96.844890115972, "alt_km": 295.05701786156806, "timestamp": "2025-12-20T14:38:00.691836+00:00", "meta": {"OBJECT_NAME": "STARLINK-36175", "OBJECT_ID": "2025-293K", "EPOCH": "2025-12-20T06:00:02.999808", "MEAN_MOTION": 15.923942, "ECCENTRICITY": 0.00039186, "INCLINATION": 69.994, "RA_OF_ASC_NODE": 301.9647, "ARG_OF_PERICENTER": 272.4602, "MEAN_ANOMALY": 314.1169, "EPHEMERIS_TYPE": 0, "CLASSIFICATION_TYPE": "U", "NORAD_CAT_ID": 67012, "ELEMENT_SET_NO": 999, "REV_AT_EPOCH": 132, "BSTAR": -0.0033440274, "MEAN_MOTION_DOT": -0.01131808, "MEAN_MOTION_DDOT": 0.00038138131}, "tle": {"line1": "1 67012U 25293K   25354.25003472 -.01131808  38138-3 -33440-2 0  9995", "line2": "2 67012  69.9940 301.9647 0003918 272.4602 314.1169 15.92394200  1325"}}, "geometry": {"type": "Point", "coordinates": [96.844890115972, 48.22964891045148]}}, {"type": "Feature", "properties": {"norad_id": 67013, "name": "STARLINK-35856", "group": "last-30-days", "lat": 45.950237197798344, "lon": 98.79021351387775, "alt_km": 295.1944902083769, "timestamp": "2025-12-20T14:38:00.691846+00:00", "meta": {"OBJECT_NAME": "STARLINK-35856", "OBJECT_ID": "2025-293L", "EPOCH": "2025-12-20T06:00:02.999808", "MEAN_MOTION": 15.92455926, "ECCENTRICITY": 0.00039105, "INCLINATION": 69.9938, "RA_OF_ASC_NODE": 301.9613, "ARG_OF_PERICENTER": 272.219, "MEAN_ANOMALY": 316.9266, "EPHEMERIS_TYPE": 0, "CLASSIFICATION_TYPE": "U", "NORAD_CAT_ID": 67013, "ELEMENT_SET_NO": 999, "REV_AT_EPOCH": 132, "BSTAR": -0.0034221195, "MEAN_MOTION_DOT": -0.01161678, "MEAN_MOTION_DDOT": 0.00040041568}, "tle": {"line1": "1 67013U 25293L   25354.25003472 -.01161678  40042-3 -34221-2 0  9999", "line2": "2 67013  69.9938 301.9613 0003910 272.2190 316.9266 15.92455926  1329"}}, "geometry": {"type": "Point", "coordinates": [98.79021351387775, 45.950237197798344]}}, {"type": "Feature", "properties": {"norad_id": 67014, "name": "STARLINK-36207", "group": "last-30-days", "lat": 43.79139042044016, "lon": 100.46989825960618, "alt_km": 295.4011572780055, "timestamp": "2025-12-20T14:38:00.691856+00:00", "meta": {"OBJECT_NAME": "STARLINK-36207", "OBJECT_ID": "2025-293M", "EPOCH": "2025-12-20T06:00:02.999808", "MEAN_MOTION": 15.92518419, "ECCENTRICITY": 0.00039213, "INCLINATION": 69.9943, "RA_OF_ASC_NODE": 301.9588, "ARG_OF_PERICENTER": 274.0737, "MEAN_ANOMALY": 317.469, "EPHEMERIS_TYPE": 0, "CLASSIFICATION_TYPE": "U", "NORAD_CAT_ID": 67014, "ELEMENT_SET_NO": 999, "REV_AT_EPOCH": 138, "BSTAR": -0.0035107011, "MEAN_MOTION_DOT": -0.01195309, "MEAN_MOTION_DDOT": 0.00042233423}, "tle": {"line1": "1 67014U 25293M   25354.25003472 -.01195309  42233-3 -35107-2 0  9996", "line2": "2 67014  69.9943 301.9588 0003921 274.0737 317.4690 15.92518419  1386"}}, "geometry": {"type": "Point", "coordinates": [100.46989825960618, 43.79139042044016]}}, {"type": "Feature", "properties": {"norad_id": 67015, "name": "STARLINK-36093", "group": "last-30-days", "lat": 39.473105565362225, "lon": 103.44641785144398, "alt_km": 295.57553045393615, "timestamp": "2025-12-20T14:38:00.691869+00:00", "meta": {"OBJECT_NAME": "STARLINK-36093", "OBJECT_ID": "2025-293N", "EPOCH": "2025-12-20T06:00:02.999808", "MEAN_MOTION": 15.92624622, "ECCENTRICITY": 0.00038942, "INCLINATION": 69.9939, "RA_OF_ASC_NODE": 301.9529, "ARG_OF_PERICENTER": 270.2578, "MEAN_ANOMALY": 326.024, "EPHEMERIS_TYPE": 0, "CLASSIFICATION_TYPE": "U", "NORAD_CAT_ID": 67015, "ELEMENT_SET_NO": 999, "REV_AT_EPOCH": 132, "BSTAR": -0.0036223296, "MEAN_MOTION_DOT": -0.01239694, "MEAN_MOTION_DDOT": 0.0004522039}, "tle": {"line1": "1 67015U 25293N   25354.25003472 -.01239694  45220-3 -36223-2 0  9992", "line2": "2 67015  69.9939 301.9529 0003894 270.2578 326.0240 15.92624622  1322"}}, "geometry": {"type": "Point", "coordinates": [103.44641785144398, 39.473105565362225]}}, {"type": "Feature", "properties": {"norad_id": 67016, "name": "STARLINK-36120", "group": "last-30-days", "lat": 41.77790104736393, "lon": 101.9142473998913, "alt_km": 295.4085392378656, "timestamp": "2025-12-20T14:38:00.691889+00:00", "meta": {"OBJECT_NAME": "STARLINK-36120", "OBJECT_ID": "2025-293P", "EPOCH": "2025-12-20T06:00:02.999808", "MEAN_MOTION": 15.92567482, "ECCENTRICITY": 0.0003871, "INCLINATION": 69.994, "RA_OF_ASC_NODE": 301.9561, "ARG_OF_PERICENTER": 270.7222, "MEAN_ANOMALY": 323.0404, "EPHEMERIS_TYPE": 0, "CLASSIFICATION_TYPE": "U", "NORAD_CAT_ID": 67016, "ELEMENT_SET_NO": 999, "REV_AT_EPOCH": 132, "BSTAR": -0.0035514156, "MEAN_MOTION_DOT": -0.01212073, "MEAN_MOTION_DDOT": 0.00043354205}, "tle": {"line1": "1 67016U 25293P   25354.25003472 -.01212073  43354-3 -35514-2 0  9993", "line2": "2 67016  69.9940 301.9561 0003871 270.7222 323.0404 15.92567482  1326"}}, "geometry": {"type": "Point", "coordinates": [101.9142473998913, 41.77790104736393]}}, {"type": "Feature", "properties": {"norad_id": 67017, "name": "STARLINK-35498", "group": "last-30-days", "lat": 37.31108719151203, "lon": 104.78340426544207, "alt_km": 295.7908711185373, "timestamp": "2025-12-20T14:38:00.691899+00:00", "meta": {"OBJECT_NAME": "STARLINK-35498", "OBJECT_ID": "2025-293Q", "EPOCH": "2025-12-20T06:00:02.999808", "MEAN_MOTION": 15.92674638, "ECCENTRICITY": 0.00039258, "INCLINATION": 69.9937, "RA_OF_ASC_NODE": 301.9502, "ARG_OF_PERICENTER": 271.5205, "MEAN_ANOMALY": 327.1053, "EPHEMERIS_TYPE": 0, "CLASSIFICATION_TYPE": "U", "NORAD_CAT_ID": 67017, "ELEMENT_SET_NO": 999, "REV_AT_EPOCH": 151, "BSTAR": -0.0036638472, "MEAN_MOTION_DOT": -0.01257011, "MEAN_MOTION_DDOT": 0.00046415883}, "tle": {"line1": "1 67017U 25293Q   25354.25003472 -.01257011  46416-3 -36638-2 0  9995", "line2": "2 67017  69.9937 301.9502 0003925 271.5205 327.1053 15.92674638  1516"}}, "geometry": {"type": "Point", "coordinates": [104.78340426544207, 37.31108719151203]}}, {"type": "Feature", "properties": {"norad_id": 67018, "name": "STARLINK-36106", "group": "last-30-days", "lat": 35.115962290745735, "lon": 106.05544746635181, "alt_km": 296.02014886960114, "timestamp": "2025-12-20T14:38:00.691909+00:00", "meta": {"OBJECT_NAME": "STARLINK-36106", "OBJECT_ID": "2025-293R", "EPOCH": "2025-12-20T06:00:02.999808", "MEAN_MOTION": 15.9272434, "ECCENTRICITY": 0.00039995, "INCLINATION": 69.9936, "RA_OF_ASC_NODE": 301.947, "ARG_OF_PERICENTER": 272.3941, "MEAN_ANOMALY": 328.5978, "EPHEMERIS_TYPE": 0, "CLASSIFICATION_TYPE": "U", "NORAD_CAT_ID": 67018, "ELEMENT_SET_NO": 999, "REV_AT_EPOCH": 143, "BSTAR": -0.0037063874, "MEAN_MOTION_DOT": -0.01274755, "MEAN_MOTION_DDOT": 0.00047655557}, "tle": {"line1": "1 67018U 25293R   25354.25003472 -.01274755  47656-3 -37064-2 0  9991", "line2": "2 67018  69.9936 301.9470 0003999 272.3941 328.5978 15.92724340  1435"}}, "geometry": {"type": "Point", "coordinates": [106.05544746635181, 35.115962290745735]}}]}